0 FENGYUN 1C DEB
1 38817U 99025EVH 13279.34900720  .00000487  00000-0  63664-3 0   223
2 38817 098.6027 314.9346 0314793 358.2546 356.8115 13.47015964 57383
0 FENGYUN 1C DEB
1 38817U 99025EVH 13289.89704203  .00001026  00000-0  12964-2 0   239
2 38817 098.6076 324.0335 0313979 331.2583 027.2710 13.47035438 58800
0 FENGYUN 1C DEB
1 38817U 99025EVH 13293.31362536  .00000977  00000-0  12393-2 0   241
2 38817 098.6089 326.9797 0313328 322.5590 035.3937 13.47041659 59260
